ONEWEB-0098             
1 45442U 20020U   25024.75078361 -.00000568  00000+0 -16386-2 0  9999
2 45442  87.8906 122.4023 0001958 109.4661 250.6678 13.11416722236006
ONEWEB-0055             
1 45443U 20020V   25024.73637543 -.00000096  00000+0 -30531-3 0  9996
2 45443  87.8903 122.4089 0001739 109.1759 250.9557 13.11413022235972
ONEWEB-0093             
1 45444U 20020W   25024.71179392  .00000509  00000+0  13992-2 0  9996
2 45444  87.8905 122.3963 0001630 115.0107 245.1190 13.11418720236035
ONEWEB-0029             
1 45445U 20020X   25024.73045140  .00000167  00000+0  43415-3 0  9996
2 45445  87.8904 122.4064 0001517 109.6008 250.5284 13.11415200236013
ONEWEB-0068             
1 45446U 20020Y   25024.71133905  .00000513  00000+0  14151-2 0  9991
2 45446  87.8906 122.3982 0001528 110.6045 249.5247 13.11270836235952
ONEWEB-0046             
1 45447U 20020Z   25024.77961773  .00000267  00000+0  71811-3 0  9993
2 45447  87.8908 122.3941 0001464  98.4320 261.6973 13.11418357235973
ONEWEB-0063             
1 45448U 20020AA  25024.73214694  .00000109  00000+0  27145-3 0  9999
2 45448  87.8902 122.4027 0001689  97.6025 262.5295 13.11414815236058
ONEWEB-0019             
1 45449U 20020AB  25024.70671849  .00000462  00000+0  12677-2 0  9991
2 45449  87.8911 122.4198 0001865 105.1234 255.0100 13.11418471235896
